NORAD_CAT_ID,OBJECT_NAME,OBJECT_TYPE,EPOCH,MEAN_MOTION,ECCENTRICITY,INCLINATION,RA_OF_ASC_NODE,ARG_OF_PERICENTER,MEAN_ANOMALY,BSTAR,MEAN_MOTION_DOT,MEAN_MOTION_DDOT,TLE_LINE0,TLE_LINE1,TLE_LINE2,SEMIMAJOR_AXIS,PERIOD,APOGEE,PERIGEE,DECAYED
56474.0,STARLINK-5524,PAYLOAD,2024-03-16 14:28:59,14.98330226,0.0003024,69.9998,147.7934,263.5214,96.5601,1.5796e-05,9.5e-07,0.0,0 STARLINK-5524,1 56474U 23064AC  24076.60346819  .00000095  00000-0  15796-4 0  9993,2 56474  69.9998 147.7934 0003024 263.5214  96.5601 14.98330226 47427,6950.192,96.107,574.159,569.955,0.0
56474.0,STARLINK-5524,PAYLOAD,2024-03-17 12:54:52,14.98331195,0.0002981,69.9997,145.4372,260.8156,99.2666,8.7948e-05,9.57e-06,0.0,0 STARLINK-5524,1 56474U 23064AC  24077.53810538  .00000957  00000-0  87948-4 0  9995,2 56474  69.9997 145.4372 0002981 260.8156  99.2666 14.98331195 47925,6950.189,96.107,574.126,569.982,0.0
56474.0,STARLINK-5524,PAYLOAD,2024-03-17 14:31:00,14.98331504,0.0002985,69.9997,145.2689,261.3627,98.7194,8.8783e-05,9.67e-06,0.0,0 STARLINK-5524,1 56474U 23064AC  24077.60486514  .00000967  00000-0  88783-4 0  9995,2 56474  69.9997 145.2689 0002985 261.3627  98.7194 14.98331504 47572,6950.188,96.107,574.128,569.979,0.0
56474.0,STARLINK-5524,PAYLOAD,2024-03-18 11:20:45,14.98331044,0.0003081,69.9994,143.081,266.0817,93.999,2.3698e-05,1.9e-06,0.0,0 STARLINK-5524,1 56474U 23064AC  24078.47274685  .00000190  00000-0  23698-4 0  9997,2 56474  69.9994 143.0810 0003081 266.0817  93.9990 14.98331044 47707,6950.19,96.107,574.196,569.913,0.0
56474.0,STARLINK-5524,PAYLOAD,2024-03-19 11:22:45,14.98338368,0.0002926,69.999,140.5537,270.7909,89.2914,-1.854e-05,-3.14e-06,0.0,0 STARLINK-5524,1 56474U 23064AC  24079.47414303 -.00000314  00000-0 -18540-4 0  9991,2 56474  69.9990 140.5537 0002926 270.7909  89.2914 14.98338368 47858,6950.167,96.106,574.066,569.998,0.0
56474.0,STARLINK-5524,PAYLOAD,2024-03-19 12:58:54,14.98334634,0.0002756,69.9999,140.3873,269.4327,90.6516,4.1217e-05,3.99e-06,0.0,0 STARLINK-5524,1 56474U 23064AC  24079.54090369  .00000399  00000-0  41217-4 0  9999,2 56474  69.9999 140.3873 0002756 269.4327  90.6516 14.98334634 48226,6950.179,96.107,573.959,570.128,0.0
56474.0,STARLINK-5524,PAYLOAD,2024-03-20 09:48:39,14.98325249,0.0003062,69.9989,138.1981,269.9608,90.12,-3.6347e-06,-1.36e-06,0.0,0 STARLINK-5524,1 56474U 23064AC  24080.40878978 -.00000136  00000-0 -36347-5 0  9996,2 56474  69.9989 138.1981 0003062 269.9608  90.1200 14.98325249 48359,6950.208,96.107,574.201,569.944,0.0
56474.0,STARLINK-5524,PAYLOAD,2024-03-20 13:00:55,14.98327142,0.0002965,69.9992,137.8622,266.5282,93.5537,2.8077e-05,2.42e-06,0.0,0 STARLINK-5524,1 56474U 23064AC  24080.54230798  .00000242  00000-0  28077-4 0  9999,2 56474  69.9992 137.8622 0002965 266.5282  93.5537 14.98327142 48010,6950.202,96.107,574.127,570.006,0.0
56474.0,STARLINK-5524,PAYLOAD,2024-03-21 13:02:56,14.98332663,0.000274,69.9995,135.3368,267.6752,92.4093,5.0319e-05,5.08e-06,0.0,0 STARLINK-5524,1 56474U 23064AC  24081.54370464  .00000508  00000-0  50319-4 0  9994,2 56474  69.9995 135.3368 0002740 267.6752  92.4093 14.98332663 48523,6950.185,96.107,573.954,570.145,0.0
56474.0,STARLINK-5524,PAYLOAD,2024-03-22 13:04:56,14.98333168,0.0002765,69.9993,132.8111,265.1174,94.967,0.0002152,2.476e-05,0.0,0 STARLINK-5524,1 56474U 23064AC  24082.54509806  .00002476  00000-0  21520-3 0  9996,2 56474  69.9993 132.8111 0002765 265.1174  94.9670 14.98333168 48313,6950.183,96.107,573.97,570.126,0.0
56474.0,STARLINK-5524,PAYLOAD,2024-03-23 05:06:18,14.9832413,0.0002892,69.9987,131.1275,269.0273,91.0555,-7.2085e-05,-9.53e-06,0.0,0 STARLINK-5524,1 56474U 23064AC  24083.21271198 -.00000953  00000-0 -72085-4 0  9994,2 56474  69.9987 131.1275 0002892 269.0273  91.0555 14.98324130 48772,6950.211,96.107,574.086,570.066,0.0
56474.0,STARLINK-5524,PAYLOAD,2024-03-23 13:06:59,14.98315982,0.0002717,69.9995,130.2876,260.3399,99.7453,-1.7798e-05,-3.05e-06,0.0,0 STARLINK-5524,1 56474U 23064AC  24083.54651670 -.00000305  00000-0 -17798-4 0  9998,2 56474  69.9995 130.2876 0002717 260.3399  99.7453 14.98315982 48460,6950.236,96.108,573.99,570.213,0.0
56474.0,STARLINK-5524,PAYLOAD,2024-03-24 05:08:18,14.98337079,0.0003405,69.9977,128.6033,271.3291,88.7478,2.2563e-05,1.76e-06,0.0,0 STARLINK-5524,1 56474U 23064AC  24084.21410201  .00000176  00000-0  22563-4 0  9996,2 56474  69.9977 128.6033 0003405 271.3291  88.7478 14.98337079 48921,6950.171,96.107,574.403,569.669,0.0
56474.0,STARLINK-5524,PAYLOAD,2024-03-24 13:08:57,14.98351441,0.0002989,69.9986,127.761,273.1112,86.9705,0.00016796,1.913e-05,0.0,0 STARLINK-5524,1 56474U 23064AC  24084.54788784  .00001913  00000-0  16796-3 0  9996,2 56474  69.9986 127.7610 0002989 273.1112  86.9705 14.98351441 48977,6950.127,96.106,574.069,569.914,0.0
56474.0,STARLINK-5524,PAYLOAD,2024-03-24 19:33:30,14.98341589,0.0003086,69.9988,127.0865,274.868,85.2126,1.084e-05,3.6e-07,0.0,0 STARLINK-5524,1 56474U 23064AC  24084.81493694  .00000036  00000-0  10840-4 0  9999,2 56474  69.9988 127.0865 0003086 274.8680  85.2126 14.98341589 49018,6950.157,96.106,574.167,569.877,0.0
56474.0,STARLINK-5524,PAYLOAD,2024-03-25 05:10:19,14.98321603,0.0002449,69.9994,126.0794,268.4816,91.6062,0.00011085,1.23e-05,0.0,0 STARLINK-5524,1 56474U 23064AC  24085.21550877  .00001230  00000-0  11085-3 0  9999,2 56474  69.9994 126.0794 0002449 268.4816  91.6062 14.98321603 49078,6950.219,96.108,573.786,570.382,0.0
56474.0,STARLINK-5524,PAYLOAD,2024-03-25 19:35:33,14.98320577,0.0002704,69.9992,124.5628,277.1137,82.9715,2.119e-05,1.6e-06,0.0,0 STARLINK-5524,1 56474U 23064AC  24085.81635586  .00000160  00000-0  21190-4 0  9996,2 56474  69.9992 124.5628 0002704 277.1137  82.9715 14.98320577 48809,6950.222,96.108,573.966,570.208,0.0
56474.0,STARLINK-5524,PAYLOAD,2024-03-26 05:12:21,14.98323806,0.0002797,69.9985,123.5533,267.5719,92.512,-0.00011898,-1.512e-05,0.0,0 STARLINK-5524,1 56474U 23064AC  24086.21691743 -.00001512  00000-0 -11898-3 0  9995,2 56474  69.9985 123.5533 0002797 267.5719  92.5120 14.98323806 49228,6950.212,96.107,574.021,570.133,0.0
56474.0,STARLINK-5524,PAYLOAD,2024-03-26 13:13:02,14.98320073,0.0002768,69.9989,122.712,265.3331,94.7512,-0.00013012,-1.645e-05,0.0,0 STARLINK-5524,1 56474U 23064AC  24086.55072150 -.00001645  00000-0 -13012-3 0  9994,2 56474  69.9989 122.7120 0002768 265.3331  94.7512 14.98320073 48916,6950.224,96.108,574.012,570.165,0.0
56474.0,STARLINK-5524,PAYLOAD,2024-03-26 19:37:33,14.98341309,0.0003136,69.9986,122.0384,272.0507,88.0293,-0.00033954,-4.143e-05,0.0,0 STARLINK-5524,1 56474U 23064AC  24086.81775224 -.00004143  00000-0 -33954-3 0  9998,2 56474  69.9986 122.0384 0003136 272.0507  88.0293 14.98341309 49310,6950.158,96.106,574.202,569.843,0.0
56474.0,STARLINK-5524,PAYLOAD,2024-03-27 05:14:22,14.98317349,0.0002908,69.9984,121.0285,267.7933,92.2893,0.00020852,2.395e-05,0.0,0 STARLINK-5524,1 56474U 23064AC  24087.21831778  .00002395  00000-0  20852-3 0  9998,2 56474  69.9984 121.0285 0002908 267.7933  92.2893 14.98317349 49373,6950.232,96.108,574.118,570.076,0.0
56474.0,STARLINK-5524,PAYLOAD,2024-03-27 11:38:54,14.98325598,0.0003022,69.9985,120.3552,266.209,93.8723,8.3662e-05,9.05e-06,0.0,0 STARLINK-5524,1 56474U 23064AC  24087.48535575  .00000905  00000-0  83662-4 0  9997,2 56474  69.9985 120.3552 0003022 266.2090  93.8723 14.98325598 49058,6950.207,96.107,574.172,569.971,0.0
56474.0,STARLINK-5524,PAYLOAD,2024-03-27 19:39:34,14.98340526,0.0002957,69.9985,119.5134,267.129,92.9531,-6.6684e-05,-8.89e-06,0.0,0 STARLINK-5524,1 56474U 23064AC  24087.81914980 -.00000889  00000-0 -66684-4 0  9993,2 56474  69.9985 119.5134 0002957 267.1290  92.9531 14.98340526 49462,6950.16,96.106,574.081,569.97,0.0
56474.0,STARLINK-5524,PAYLOAD,2024-03-28 11:40:54,14.98336106,0.0003149,69.9982,117.8297,266.6749,93.405,0.00025041,2.897e-05,0.0,0 STARLINK-5524,1 56474U 23064AC  24088.48674614  .00002897  00000-0  25041-3 0  9994,2 56474  69.9982 117.8297 0003149 266.6749  93.4050 14.98336106 49200,6950.174,96.107,574.228,569.85,0.0
56474.0,STARLINK-5524,PAYLOAD,2024-03-28 19:41:31,14.9837564,0.000324,69.9981,116.9878,267.7448,92.334,0.00060221,7.108e-05,0.0,0 STARLINK-5524,1 56474U 23064AC  24088.82050639  .00007108  00000-0  60221-3 0  9996,2 56474  69.9981 116.9878 0003240 267.7448  92.3340 14.98375640 49615,6950.052,96.104,574.169,569.665,0.0
56474.0,STARLINK-5524,PAYLOAD,2024-03-29 05:18:23,14.98325844,0.0003409,69.9983,115.978,282.9692,77.1087,-4.5446e-05,-6.35e-06,0.0,0 STARLINK-5524,1 56474U 23064AC  24089.22110843 -.00000635  00000-0 -45446-4 0  9998,2 56474  69.9983 115.9780 0003409 282.9692  77.1087 14.98325844 49671,6950.206,96.107,574.44,569.701,0.0
56474.0,STARLINK-5524,PAYLOAD,2024-03-29 11:42:55,14.98329013,0.0003043,69.9983,115.3049,268.6693,91.4118,-5.7325e-05,-7.77e-06,0.0,0 STARLINK-5524,1 56474U 23064AC  24089.48814554 -.00000777  00000-0 -57325-4 0  9992,2 56474  69.9983 115.3049 0003043 268.6693  91.4118 14.98329013 49350,6950.196,96.107,574.176,569.946,0.0
56474.0,STARLINK-5524,PAYLOAD,2024-03-30 05:20:24,14.98330132,0.0002993,69.9984,113.4527,269.4311,90.6505,-0.00013928,-1.754e-05,0.0,0 STARLINK-5524,1 56474U 23064AC  24090.22250532 -.00001754  00000-0 -13928-3 0  9992,2 56474  69.9984 113.4527 0002993 269.4311  90.6505 14.98330132 49827,6950.192,96.107,574.138,569.977,0.0
56474.0,STARLINK-5524,PAYLOAD,2024-03-30 11:44:56,14.98330036,0.000297,69.9984,112.7799,268.9365,91.1454,-0.00014165,-1.783e-05,0.0,0 STARLINK-5524,1 56474U 23064AC  24090.48954511 -.00001783  00000-0 -14165-3 0  9994,2 56474  69.9984 112.7799 0002970 268.9365  91.1454 14.98330036 49505,6950.193,96.107,574.122,569.994,0.0
56474.0,STARLINK-5524,PAYLOAD,2024-03-30 18:09:28,14.98331705,0.0002987,69.9983,112.1065,269.1252,90.9565,-0.00014887,-1.869e-05,0.0,0 STARLINK-5524,1 56474U 23064AC  24090.75658344 -.00001869  00000-0 -14887-3 0  9995,2 56474  69.9983 112.1065 0002987 269.1252  90.9565 14.98331705 49548,6950.188,96.107,574.129,569.977,0.0
